IRNSS-1B                
1 39635U 14017A   19161.92341022  .00000061  00000-0  00000+0 0  9996
2 39635  29.3274 283.2961 0021958 182.4778 180.6127  1.00273953 19104
LUCH 5V                 
1 39727U 14023A   19165.49456741 -.00000276  00000-0  00000+0 0  9995
2 39727   1.2244 303.9732 0003653 145.3789  85.9395  1.00270446536854
KAZSAT-3                
1 39728U 14023B   19165.10726858  .00000052  00000-0  00000+0 0  9994
2 39728   0.0203  12.2018 0001536 183.5230 163.5131  1.00271123 18777
EUTELSAT 3B             
1 39773U 14030A   19164.85882834  .00000011  00000-0  00000-0 0  9996
2 39773   0.0623  21.3946 0004818 121.6335  71.0974  1.00271893 18399
ASIASAT 8               
1 40107U 14046A   19165.13452128 -.00000042  00000-0  00000+0 0  9991
2 40107   0.0197  18.6739 0002612  67.5761 220.4279  1.00272588 17825
ASIASAT 6               
1 40141U 14052A   19164.91230225 -.00000371  00000-0  00000-0 0  9999
2 40141   0.0282 289.9891 0000888 171.9136 248.3456  1.00269191 17382
OPTUS 10                
1 40146U 14054A   19165.30389241 -.00000156  00000-0  00000+0 0  9993
2 40146   0.0743 345.1371 0003280 119.9980  62.5520  1.00272446 17458
MEASAT-3B               
1 40147U 14054B   19164.98428237 -.00000251  00000-0  00000+0 0  9992
2 40147   0.0329  32.7187 0002061  15.8824 299.2435  1.00271562 17508
LUCH (OLYMP)            
1 40258U 14058A   19165.77999955  .00000041  00000-0  00000+0 0  9993
2 40258   0.0458 137.5069 0001151 353.0970 112.9062  1.00272979 17279
HIMAWARI-8              
1 40267U 14060A   19164.83867066 -.00000285  00000-0  00000+0 0  9990
2 40267   0.0304 148.3062 0001281 307.2203 248.9038  1.00271509 17198
IRNSS-1C                
1 40269U 14061A   19165.03868729 -.00000168  00000-0  00000+0 0  9993
2 40269   1.9515 208.5043 0018296   7.2911 143.3207  1.00272136 17158
INTELSAT 30 (IS-30)     
1 40271U 14062A   19165.28012767 -.00000160  00000-0  00000+0 0  9999
2 40271   0.0188  11.6187 0001784  66.9838 189.4646  1.00272024 17090
ARSAT 1                 
1 40272U 14062B   19164.84686067 -.00000268  00000-0  00000-0 0  9991
2 40272   0.0330 128.8411 0001544 319.4230  46.6532  1.00271447 16946
EXPRESS-AM6             
1 40277U 14064A   19165.31368899  .00000089  00000-0  00000+0 0  9990
2 40277   0.0369 203.7713 0000526 292.2166 292.2513  1.00271805 17000
GSAT-16                 
1 40332U 14078A   19164.98660597  .00000076  00000-0  00000+0 0  9995
2 40332   0.0816 105.7688 0007840 338.7530 227.7350  1.00271945 16587
DIRECTV 14              
1 40333U 14078B   19165.08442299 -.00000134  00000-0  00000+0 0  9991
2 40333   0.0185 333.0884 0000869  20.6835 199.4497  1.00270588 16578
YAMAL 401               
1 40345U 14082A   19165.03868729 -.00000236  00000-0  00000+0 0  9997
2 40345   0.0103   1.0397 0000265 199.0834 165.8003  1.00266764 16742
ASTRA 2G                
1 40364U 14089A   19165.14077376  .00000141  00000-0  00000+0 0  9991
2 40364   0.0234 359.3619 0004854  62.8239 278.8273  1.00267778 16344
FENGYUN 2G              
1 40367U 14090A   19164.92549264 -.00000311  00000-0  00000-0 0  9992
2 40367   1.2266 101.0048 0000827 322.6189 271.2225  1.00268249 16360
MUOS-3                  
1 40374U 15002A   19165.12966223 -.00000138  00000-0  00000+0 0  9991
2 40374   3.2095 339.1828 0056273 175.7131 138.4502  1.00271550 16147
INMARSAT 5-F2           
1 40384U 15005A   19165.38540661 -.00000294  00000-0  00000+0 0  9990
2 40384   0.0236   5.7790 0000380  81.1825 259.1619  1.00268198 16001
ABS-3A                  
1 40424U 15010A   19165.13452128 -.00000035  00000-0  00000+0 0  9997
2 40424   0.0119 116.8627 0002189 249.1824 301.5104  1.00273088 15748
EUTELSAT 115 WEST B     
1 40425U 15010B   19164.74007691 -.00000034  00000-0  00000-0 0  9995
2 40425   0.0130 161.7790 0000405  31.8075 219.7040  1.00274048 15718
EXPRESS-AM7             
1 40505U 15012A   19163.64880597  .00000140  00000-0  00000-0 0  9995
2 40505   0.0098  19.4174 0002533  55.0696  99.7348  1.00270895 15674
IRNSS-1D                
1 40547U 15018A   19164.85932508 -.00000322  00000-0  00000-0 0  9994
2 40547  29.2315 283.3523 0023289 183.8593 215.7638  1.00269237 15324
BEIDOU 17               
1 40549U 15019A   19165.56234558 -.00000181  00000-0  00000+0 0  9998
2 40549  53.5707 325.4413 0038826 186.9891  45.2201  1.00254450 15418
THOR 7                  
1 40613U 15022A   19165.13452128 -.00000017  00000-0  00000+0 0  9990
2 40613   0.0122 334.1047 0003061 109.4808 226.3273  1.00271163 15151
TURKMENALEM52E/MONACOSAT
1 40617U 15023A   19165.11946965  .00000095  00000-0  00000+0 0  9995
2 40617   0.0237  63.8379 0003279  21.1347 272.1594  1.00272111 15165
DIRECTV 15              
1 40663U 15026A   19164.84110310 -.00000124  00000-0  00000-0 0  9990
2 40663   0.0340  92.9750 0000530  10.1411   0.6665  1.00271802 14858
SKY MEXICO-1            
1 40664U 15026B   19164.84546490 -.00000243  00000-0  00000-0 0  9995
2 40664   0.0281  84.6594 0002271 358.2775  44.5071  1.00272204 14877
METEOSAT-11 (MSG-4)     
1 40732U 15034A   19165.18729897 -.00000007  00000-0  00000+0 0  9999
2 40732   1.0551 258.9446 0002086 217.4406 213.8473  1.00262949 14363
STAR ONE C4             
1 40733U 15034B   19164.84720962 -.00000274  00000-0  00000-0 0  9993
2 40733   0.0350  52.1338 0002552  14.6345  70.0886  1.00271235 14360
WGS F7 (USA 263)        
1 40746U 15036A   19164.82426656  .00000008  00000-0  00000+0 0  9993
2 40746   0.0027   6.6338 0000300  22.4724 344.4567  1.00272125 14202
INTELSAT 34 (IS-34)     
1 40874U 15039A   19165.11230016 -.00000294  00000-0  00000+0 0  9992
2 40874   0.0187  10.9746 0000380  54.9059 181.1601  1.00270442 13991
EUTELSAT 8 WEST B       
1 40875U 15039B   19165.12966223 -.00000075  00000-0  00000+0 0  9997
2 40875   0.0718 342.5722 0004349 105.7816 212.4670  1.00271283 14017
GSAT-6                  
1 40880U 15041A   19165.03868729 -.00000174  00000-0  00000+0 0  9998
2 40880   0.0100  69.6736 0003899 188.8765 100.4237  1.00273250 13968
INMARSAT 5-F3           
1 40882U 15042A   19165.13243978  .00000041  00000-0  00000+0 0  9997
2 40882   0.0225   4.9195 0000986  82.2391  42.2541  1.00269604 13885
MUOS-4                  
1 40887U 15044A   19165.04424457 -.00000103  00000-0  00000+0 0  9997
2 40887   3.3854 336.7670 0054157   4.2521  11.9827  1.00271908 13897
TJS-1                   
1 40892U 15046A   19165.68172392 -.00000165  00000-0  10000-3 0  9996
2 40892   0.0249  49.5986 0004233  27.8861 225.5893  1.00272027 13880
EXPRESS-AM8             
1 40895U 15048A   19164.93017097 -.00000120  00000-0  00000-0 0  9995
2 40895   0.0215 223.3723 0000802 227.5540 131.8695  1.00271294 13703
BEIDOU 20               
1 40938U 15053A   19164.80847685 -.00000184  00000-0  00000+0 0  9998
2 40938  53.1693 288.4347 0050145 181.4882 178.8711  1.00266080 13691
SKY MUSTER (NBN1A)      
1 40940U 15054A   19164.83867066 -.00000288  00000-0  00000+0 0  9995
2 40940   0.0184 330.1194 0001931 114.1085 259.7831  1.00270580 13616
ARSAT 2                 
1 40941U 15054B   19164.91682389 -.00000234  00000-0  00000+0 0  9999
2 40941   0.0437 145.2169 0001873 297.1394  68.6174  1.00271143 13641
MORELOS 3               
1 40946U 15056A   19164.56039307 -.00000056  00000-0  00000-0 0  9996
2 40946   5.3960 328.1295 0002541 181.8298 200.2685  1.00272382 13616
APSTAR 9                
1 40982U 15059A   19165.06738806 -.00000274  00000-0  00000+0 0  9996
2 40982   0.0440 150.3470 0001512 287.6093 350.3847  1.00271871 13480
TURKSAT 4B              
1 40984U 15060A   19165.31924333  .00000106  00000-0  00000+0 0  9993
2 40984   0.0174 341.2083 0002228  95.0838 350.9800  1.00275053 13447
CHINASAT 2C (ZX 2C)     
1 41021U 15063A   19165.23461590 -.00000332  00000-0  00000+0 0  9993
2 41021   0.0458 148.0353 0002027 276.3081  25.7792  1.00270062 13340
GSAT-15                 
1 41028U 15065A   19165.02236800 -.00000267  00000-0  00000+0 0  9990
2 41028   0.0570 281.6117 0003494 140.8786 301.0904  1.00271518 13195
BADR-7 (ARABSAT-6B)     
1 41029U 15065B   19165.14077376  .00000136  00000-0  00000+0 0  9999
2 41029   0.0528 264.8115 0002524 301.2489 132.7358  1.00268988 13230
LAOSAT 1                
1 41034U 15067A   19164.96730035 -.00000352  00000-0  00000+0 0  9995
2 41034   0.0354 231.3928 0001800 185.1062 322.1909  1.00268053 13179
TELSTAR 12V             
1 41036U 15068A   19164.78640617 -.00000128  00000-0  00000+0 0  9995
2 41036   0.0097 318.3099 0001786 105.4446 106.1516  1.00270851 13054
CHINASAT 1C (ZX 1C)     
1 41103U 15073A   19164.88313118 -.00000160  00000-0  00000-0 0  9997
2 41103   0.7597  95.9716 0001228 271.3801 293.9385  1.00271025 12999
ELEKTRO-L 2             
1 41105U 15074A   19164.92443942 -.00000106  00000-0  00000-0 0  9994
2 41105   0.3403 109.1357 0002774 326.7464 234.8860  1.00271239 12842
COSMOS 2513             
1 41121U 15075A   19164.88868822 -.00000147  00000-0  00000-0 0  9991
2 41121   0.0823 110.6514 0004157 321.8772 229.5295  1.00270489 12928
EXPRESS-AMU1            
1 41191U 15082A   19164.83591024  .00000146  00000-0  00000-0 0  9996
2 41191   0.0189 327.6290 0002696 118.0597 153.2015  1.00273250 12605
GAOFEN 4                
1 41194U 15083A   19165.42717287 -.00000343  00000-0  00000+0 0  9996
2 41194   0.0367 272.5945 0003807 281.8806 327.4530  1.00269160 12824
BELINTERSAT-1           
1 41238U 16001A   19164.86553943  .00000097  00000-0  00000-0 0  9996
2 41238   0.0299 245.6517 0002543 212.1411 167.1658  1.00274487 12590
IRNSS-1E                
1 41241U 16003A   19164.73999068 -.00000299  00000-0  00000+0 0  9994
2 41241  29.2702 102.3481 0017867 184.0435 353.5365  1.00270556 12525
EUTELSAT 9B             
1 41310U 16005A   19164.85327127  .00000052  00000-0  00000-0 0  9994
2 41310   0.0904  84.6338 0001748 245.0538 248.3343  1.00272237 12445
